NUSAT-2(BATATA)
1 41558U 16033C   18094.30819763  .00001271  00000-0  49219-4 0  9995
2 41558  97.4409 178.7469 0014698  61.7766 298.4955 15.27975263102867
